{
  "norad_id": 58626,
  "name": "STARLINK-31086",
  "history": [
    {
      "epoch": "2026-04-18T16:36:31.379040Z",
      "apogee_km": 483.7470963421374,
      "perigee_km": 482.4036709574175,
      "latitude_deg": 5.057844358221092e-06,
      "longitude_deg": 104.86487663602192,
      "height_km": 482.68560657449166,
      "semi_major_axis_km": 6861.212383649777,
      "eccentricity": 9.79e-05,
      "inclination_deg": 43.0033,
      "raan_deg": 200.803,
      "arg_perigee_deg": 284.3502,
      "mean_anomaly_deg": 75.7241,
      "mean_motion_rev_day": 15.27571221
    },
    {
      "epoch": "2026-04-19T16:08:52.257984Z",
      "apogee_km": 484.2494774544439,
      "perigee_km": 481.8466904380457,
      "latitude_deg": -1.8445354411701637e-05,
      "longitude_deg": 105.27303728308391,
      "height_km": 482.7638929826115,
      "semi_major_axis_km": 6861.185083946244,
      "eccentricity": 0.0001751,
      "inclination_deg": 43.0044,
      "raan_deg": 195.2649,
      "arg_perigee_deg": 272.9426,
      "mean_anomaly_deg": 87.1225,
      "mean_motion_rev_day": 15.27580338
    },
    {
      "epoch": "2026-04-20T12:32:54.762720Z",
      "apogee_km": 483.7444105280738,
      "perigee_km": 482.42595807313774,
      "latitude_deg": 2.6249316565299547e-05,
      "longitude_deg": 153.6237201703374,
      "height_km": 482.8346380777557,
      "semi_major_axis_km": 6861.2221843006055,
      "eccentricity": 9.608e-05,
      "inclination_deg": 43.0024,
      "raan_deg": 190.4638,
      "arg_perigee_deg": 272.3595,
      "mean_anomaly_deg": 87.7147,
      "mean_motion_rev_day": 15.27567948
    },
    {
      "epoch": "2026-04-21T12:05:14.382816Z",
      "apogee_km": 483.9951016726227,
      "perigee_km": 482.1031982036375,
      "latitude_deg": 6.309879642380376e-05,
      "longitude_deg": 154.0362032028696,
      "height_km": 482.6998804147249,
      "semi_major_axis_km": 6861.186149938129,
      "eccentricity": 0.00013787,
      "inclination_deg": 43.0049,
      "raan_deg": 184.9247,
      "arg_perigee_deg": 277.6851,
      "mean_anomaly_deg": 82.3845,
      "mean_motion_rev_day": 15.27579982
    },
    {
      "epoch": "2026-04-21T21:30:11.706048Z",
      "apogee_km": 483.8086486038319,
      "perigee_km": 482.35818660755103,
      "latitude_deg": 2.05864423827889e-05,
      "longitude_deg": 10.195111824646744,
      "height_km": 482.75956281910084,
      "semi_major_axis_km": 6861.220417605691,
      "eccentricity": 0.0001057,
      "inclination_deg": 43.0048,
      "raan_deg": 182.7092,
      "arg_perigee_deg": 277.9897,
      "mean_anomaly_deg": 82.0835,
      "mean_motion_rev_day": 15.27568538
    },
    {
      "epoch": "2026-04-22T21:02:33.216576Z",
      "apogee_km": 484.04458262333264,
      "perigee_km": 482.1714627321426,
      "latitude_deg": -3.939561323316443e-05,
      "longitude_deg": 10.597693208490794,
      "height_km": 482.8150770707573,
      "semi_major_axis_km": 6861.245022677737,
      "eccentricity": 0.0001365,
      "inclination_deg": 42.9991,
      "raan_deg": 177.1682,
      "arg_perigee_deg": 274.2576,
      "mean_anomaly_deg": 85.8119,
      "mean_motion_rev_day": 15.27560321
    },
    {
      "epoch": "2026-04-24T15:24:45.406944Z",
      "apogee_km": 483.913801687474,
      "perigee_km": 482.16557386742807,
      "latitude_deg": 1.1743669527851066e-05,
      "longitude_deg": 83.33747564969443,
      "height_km": 482.70478669085196,
      "semi_major_axis_km": 6861.176687777451,
      "eccentricity": 0.0001274,
      "inclination_deg": 43.0028,
      "raan_deg": 167.1988,
      "arg_perigee_deg": 277.3493,
      "mean_anomaly_deg": 82.7214,
      "mean_motion_rev_day": 15.27583142
    },
    {
      "epoch": "2026-04-25T14:57:05.357088Z",
      "apogee_km": 484.97350764182556,
      "perigee_km": 481.0763676612405,
      "latitude_deg": -4.4504098431299284e-05,
      "longitude_deg": 83.7497824687798,
      "height_km": 482.5201662664181,
      "semi_major_axis_km": 6861.161937651533,
      "eccentricity": 0.000284,
      "inclination_deg": 43.0054,
      "raan_deg": 161.661,
      "arg_perigee_deg": 278.3553,
      "mean_anomaly_deg": 81.6976,
      "mean_motion_rev_day": 15.27588068
    },
    {
      "epoch": "2026-04-26T19:11:55.232448Z",
      "apogee_km": 483.98052829440894,
      "perigee_km": 482.08972647954397,
      "latitude_deg": 1.9299476541205855e-05,
      "longitude_deg": 12.234366150338143,
      "height_km": 482.6614920705569,
      "semi_major_axis_km": 6861.172127386976,
      "eccentricity": 0.00013779,
      "inclination_deg": 43.002,
      "raan_deg": 155.0134,
      "arg_perigee_deg": 279.1628,
      "mean_anomaly_deg": 80.9068,
      "mean_motion_rev_day": 15.27584665
    },
    {
      "epoch": "2026-04-27T18:44:16.525248Z",
      "apogee_km": 483.93214960429395,
      "perigee_km": 482.20038190001833,
      "latitude_deg": -2.055945053710606e-05,
      "longitude_deg": 12.640281833730853,
      "height_km": 482.7259733159958,
      "semi_major_axis_km": 6861.203265752156,
      "eccentricity": 0.0001262,
      "inclination_deg": 43.0011,
      "raan_deg": 149.4748,
      "arg_perigee_deg": 277.7664,
      "mean_anomaly_deg": 82.3044,
      "mean_motion_rev_day": 15.27574266
    },
    {
      "epoch": "2026-04-28T18:16:37.813728Z",
      "apogee_km": 483.5084587297906,
      "perigee_km": 482.650806650704,
      "latitude_deg": -3.422313495069958e-05,
      "longitude_deg": 13.045043467152894,
      "height_km": 482.59643236200566,
      "semi_major_axis_km": 6861.216632690247,
      "eccentricity": 6.25e-05,
      "inclination_deg": 43.0008,
      "raan_deg": 143.935,
      "arg_perigee_deg": 307.1937,
      "mean_anomaly_deg": 52.8857,
      "mean_motion_rev_day": 15.27569802
    },
    {
      "epoch": "2026-04-29T11:32:20.868576Z",
      "apogee_km": 484.40307400729216,
      "perigee_km": 481.73008631653374,
      "latitude_deg": -3.4126307001778694e-06,
      "longitude_deg": 109.34415792226899,
      "height_km": 482.6827452689724,
      "semi_major_axis_km": 6861.203580161913,
      "eccentricity": 0.00019479,
      "inclination_deg": 43.0041,
      "raan_deg": 139.8724,
      "arg_perigee_deg": 276.9379,
      "mean_anomaly_deg": 83.1251,
      "mean_motion_rev_day": 15.27574161
    },
    {
      "epoch": "2026-04-30T07:56:24.276192Z",
      "apogee_km": 484.0955493249294,
      "perigee_km": 482.12486190253276,
      "latitude_deg": 4.2366008213473264e-05,
      "longitude_deg": 157.6923712142531,
      "height_km": 482.8219408557046,
      "semi_major_axis_km": 6861.24720561373,
      "eccentricity": 0.00014361,
      "inclination_deg": 43.0008,
      "raan_deg": 135.0726,
      "arg_perigee_deg": 273.7876,
      "mean_anomaly_deg": 86.2812,
      "mean_motion_rev_day": 15.27559592
    },
    {
      "epoch": "2026-05-02T08:35:13.545024Z",
      "apogee_km": 483.88904178210214,
      "perigee_km": 482.1641452546928,
      "latitude_deg": -2.172592018889338e-05,
      "longitude_deg": 134.53995152576712,
      "height_km": 482.71388684862256,
      "semi_major_axis_km": 6861.163593518398,
      "eccentricity": 0.0001257,
      "inclination_deg": 43.0002,
      "raan_deg": 123.6234,
      "arg_perigee_deg": 275.9445,
      "mean_anomaly_deg": 84.1263,
      "mean_motion_rev_day": 15.27587515
    },
    {
      "epoch": "2026-05-03T15:58:21.306432Z",
      "apogee_km": 483.82800046889224,
      "perigee_km": 482.15525730917034,
      "latitude_deg": 6.081026886847035e-07,
      "longitude_deg": 15.085176466270752,
      "height_km": 482.7378653560437,
      "semi_major_axis_km": 6861.1286288890315,
      "eccentricity": 0.0001219,
      "inclination_deg": 42.9994,
      "raan_deg": 116.2399,
      "arg_perigee_deg": 272.0726,
      "mean_anomaly_deg": 87.9986,
      "mean_motion_rev_day": 15.27599192
    },
    {
      "epoch": "2026-05-04T15:30:42.630336Z",
      "apogee_km": 483.7642556999335,
      "perigee_km": 482.3851521474444,
      "latitude_deg": -3.1261574481483534e-05,
      "longitude_deg": 15.491566645337892,
      "height_km": 482.83848593221575,
      "semi_major_axis_km": 6861.211703923688,
      "eccentricity": 0.0001005,
      "inclination_deg": 43.0007,
      "raan_deg": 110.7019,
      "arg_perigee_deg": 271.0525,
      "mean_anomaly_deg": 89.0211,
      "mean_motion_rev_day": 15.27571448
    },
    {
      "epoch": "2026-05-05T15:03:04.330944Z",
      "apogee_km": 483.9841576172639,
      "perigee_km": 482.19749389143726,
      "latitude_deg": -3.6562705474986134e-05,
      "longitude_deg": 15.895210894548887,
      "height_km": 482.8314305364325,
      "semi_major_axis_km": 6861.22782575435,
      "eccentricity": 0.0001302,
      "inclination_deg": 43.0016,
      "raan_deg": 105.1627,
      "arg_perigee_deg": 272.3226,
      "mean_anomaly_deg": 87.7476,
      "mean_motion_rev_day": 15.27566064
    },
    {
      "epoch": "2026-05-06T09:52:56.737056Z",
      "apogee_km": 483.85424374685135,
      "perigee_km": 482.2822044059103,
      "latitude_deg": -2.3816692357499437e-05,
      "longitude_deg": 88.22229179198243,
      "height_km": 482.8321380142279,
      "semi_major_axis_km": 6861.205224076381,
      "eccentricity": 0.00011456,
      "inclination_deg": 43.001,
      "raan_deg": 100.7315,
      "arg_perigee_deg": 270.925,
      "mean_anomaly_deg": 89.147,
      "mean_motion_rev_day": 15.27573612
    },
    {
      "epoch": "2026-05-07T07:51:07.539840Z",
      "apogee_km": 484.01909249017353,
      "perigee_km": 482.08560933108674,
      "latitude_deg": -1.1876921796126054e-05,
      "longitude_deg": 112.60482736885345,
      "height_km": 482.81698984132316,
      "semi_major_axis_km": 6861.189350910629,
      "eccentricity": 0.0001409,
      "inclination_deg": 43.0017,
      "raan_deg": 95.5613,
      "arg_perigee_deg": 270.7268,
      "mean_anomaly_deg": 89.3422,
      "mean_motion_rev_day": 15.27578913
    }
  ]
}